{"fetched_at":"2026-04-05T12:57:33Z","count":17389,"tles":[{"name":"BEIDOU-2 IGSO-7 (C16)","line1":"1 43539U 18057A   26086.63100478 -.00000168  00000+0  00000+0 0  9990","line2":"2 43539  55.1838 163.7722 0101772 237.2605 124.1194  1.00275701 28316","category":"GPS"}]}